{
  "type": "FeatureCollection",
  "features": [
    {
      "type": "Feature",
      "properties": {
        "norad_id": 28890,
        "name": "BEIJING 1",
        "group": "dmc",
        "lat": -26.79109805083447,
        "lon": 115.19046550637295,
        "alt_km": 698.7403015389464,
        "timestamp": "2025-12-09T11:33:54.467067+00:00",
        "meta_object_name": "BEIJING 1",
        "meta_object_id": "2005-043A",
        "meta_epoch": "2025-12-09T05:07:29.601120",
        "meta_mean_motion": 14.63361177,
        "meta_eccentricity": 0.0015121,
        "meta_inclination": 98.2657,
        "meta_ra_of_asc_node": 110.7121,
        "meta_arg_of_pericenter": 151.8579,
        "meta_mean_anomaly": 208.3443,
        "meta_ephemeris_type": 0,
        "meta_classification_type": "U",
        "meta_norad_cat_id": 28890,
        "meta_element_set_no": 999,
        "meta_rev_at_epoch": 7286,
        "meta_bstar": 0.00015777,
        "meta_mean_motion_dot": 7.67e-06,
        "meta_mean_motion_ddot": 0,
        "tle_line1": "1 28890U 05043A   25343.21353705  .00000767  00000+0  15777-3 0  9991",
        "tle_line2": "2 28890  98.2657 110.7121 0015121 151.8579 208.3443 14.63361177 72861"
      },
      "geometry": {
        "type": "Point",
        "coordinates": [
          115.19046550637295,
          -26.79109805083447
        ]
      }
    },
    {
      "type": "Feature",
      "properties": {
        "norad_id": 33320,
        "name": "HUANJING 1A (HJ-1A)",
        "group": "dmc",
        "lat": 52.94905530027845,
        "lon": 162.1768584455045,
        "alt_km": 611.6804071347915,
        "timestamp": "2025-12-09T11:33:54.467093+00:00",
        "meta_object_name": "HUANJING 1A (HJ-1A)",
        "meta_object_id": "2008-041A",
        "meta_epoch": "2025-12-09T04:31:25.695840",
        "meta_mean_motion": 14.83376348,
        "meta_eccentricity": 0.0020365,
        "meta_inclination": 97.654,
        "meta_ra_of_asc_node": 331.6349,
        "meta_arg_of_pericenter": 45.4668,
        "meta_mean_anomaly": 314.8206,
        "meta_ephemeris_type": 0,
        "meta_classification_type": "U",
        "meta_norad_cat_id": 33320,
        "meta_element_set_no": 999,
        "meta_rev_at_epoch": 93023,
        "meta_bstar": 0.00030716,
        "meta_mean_motion_dot": 2.477e-05,
        "meta_mean_motion_ddot": 0,
        "tle_line1": "1 33320U 08041A   25343.18849185  .00002477  00000+0  30716-3 0  9994",
        "tle_line2": "2 33320  97.6540 331.6349 0020365  45.4668 314.8206 14.83376348930230"
      },
      "geometry": {
        "type": "Point",
        "coordinates": [
          162.1768584455045,
          52.94905530027845
        ]
      }
    },
    {
      "type": "Feature",
      "properties": {
        "norad_id": 33321,
        "name": "HUANJING 1B (HJ-1B)",
        "group": "dmc",
        "lat": -6.62490110443731,
        "lon": -23.48502171750592,
        "alt_km": 625.3841181651314,
        "timestamp": "2025-12-09T11:33:54.467107+00:00",
        "meta_object_name": "HUANJING 1B (HJ-1B)",
        "meta_object_id": "2008-041B",
        "meta_epoch": "2025-12-09T05:07:01.255872",
        "meta_mean_motion": 14.82807974,
        "meta_eccentricity": 0.0038258,
        "meta_inclination": 97.6396,
        "meta_ra_of_asc_node": 335.365,
        "meta_arg_of_pericenter": 86.8036,
        "meta_mean_anomaly": 273.7555,
        "meta_ephemeris_type": 0,
        "meta_classification_type": "U",
        "meta_norad_cat_id": 33321,
        "meta_element_set_no": 999,
        "meta_rev_at_epoch": 93025,
        "meta_bstar": 0.00029206,
        "meta_mean_motion_dot": 2.341e-05,
        "meta_mean_motion_ddot": 0,
        "tle_line1": "1 33321U 08041B   25343.21320898  .00002341  00000+0  29206-3 0  9996",
        "tle_line2": "2 33321  97.6396 335.3650 0038258  86.8036 273.7555 14.82807974930259"
      },
      "geometry": {
        "type": "Point",
        "coordinates": [
          -23.48502171750592,
          -6.62490110443731
        ]
      }
    },
    {
      "type": "Feature",
      "properties": {
        "norad_id": 33446,
        "name": "YAOGAN-4",
        "group": "dmc",
        "lat": -81.50445967468245,
        "lon": 24.910548060709406,
        "alt_km": 624.5319198993084,
        "timestamp": "2025-12-09T11:33:54.467119+00:00",
        "meta_object_name": "YAOGAN-4",
        "meta_object_id": "2008-061A",
        "meta_epoch": "2025-12-08T19:47:11.729184",
        "meta_mean_motion": 14.82664885,
        "meta_eccentricity": 0.00139192,
        "meta_inclination": 97.9177,
        "meta_ra_of_asc_node": 272.962,
        "meta_arg_of_pericenter": 336.595,
        "meta_mean_anomaly": 23.4628,
        "meta_ephemeris_type": 0,
        "meta_classification_type": "U",
        "meta_norad_cat_id": 33446,
        "meta_element_set_no": 999,
        "meta_rev_at_epoch": 91745,
        "meta_bstar": 0.00038742009,
        "meta_mean_motion_dot": 3.075e-05,
        "meta_mean_motion_ddot": 0,
        "tle_line1": "1 33446U 08061A   25342.82444131  .00003075  00000+0  38742-3 0  9999",
        "tle_line2": "2 33446  97.9177 272.9620 0013919 336.5950  23.4628 14.82664885917457"
      },
      "geometry": {
        "type": "Point",
        "coordinates": [
          24.910548060709406,
          -81.50445967468245
        ]
      }
    },
    {
      "type": "Feature",
      "properties": {
        "norad_id": 35681,
        "name": "DEIMOS-1",
        "group": "dmc",
        "lat": 51.8209009947094,
        "lon": -25.836869413172668,
        "alt_km": 639.1453015342413,
        "timestamp": "2025-12-09T11:33:54.467130+00:00",
        "meta_object_name": "DEIMOS-1",
        "meta_object_id": "2009-041A",
        "meta_epoch": "2025-12-09T04:28:36.666336",
        "meta_mean_motion": 14.74943838,
        "meta_eccentricity": 0.0002712,
        "meta_inclination": 97.7145,
        "meta_ra_of_asc_node": 143.955,
        "meta_arg_of_pericenter": 85.1111,
        "meta_mean_anomaly": 275.0408,
        "meta_ephemeris_type": 0,
        "meta_classification_type": "U",
        "meta_norad_cat_id": 35681,
        "meta_element_set_no": 999,
        "meta_rev_at_epoch": 87887,
        "meta_bstar": 0.00016651,
        "meta_mean_motion_dot": 1.071e-05,
        "meta_mean_motion_ddot": 0,
        "tle_line1": "1 35681U 09041A   25343.18653549  .00001071  00000+0  16651-3 0  9995",
        "tle_line2": "2 35681  97.7145 143.9550 0002712  85.1111 275.0408 14.74943838878879"
      },
      "geometry": {
        "type": "Point",
        "coordinates": [
          -25.836869413172668,
          51.8209009947094
        ]
      }
    },
    {
      "type": "Feature",
      "properties": {
        "norad_id": 35683,
        "name": "UK-DMC 2",
        "group": "dmc",
        "lat": 44.744888661697836,
        "lon": -53.65784004813047,
        "alt_km": 638.6446538668097,
        "timestamp": "2025-12-09T11:33:54.467141+00:00",
        "meta_object_name": "UK-DMC 2",
        "meta_object_id": "2009-041C",
        "meta_epoch": "2025-12-09T04:26:50.668224",
        "meta_mean_motion": 14.75608245,
        "meta_eccentricity": 0.0001374,
        "meta_inclination": 97.8563,
        "meta_ra_of_asc_node": 118.1883,
        "meta_arg_of_pericenter": 98.8186,
        "meta_mean_anomaly": 261.3179,
        "meta_ephemeris_type": 0,
        "meta_classification_type": "U",
        "meta_norad_cat_id": 35683,
        "meta_element_set_no": 999,
        "meta_rev_at_epoch": 87854,
        "meta_bstar": 0.00018427,
        "meta_mean_motion_dot": 1.208e-05,
        "meta_mean_motion_ddot": 0,
        "tle_line1": "1 35683U 09041C   25343.18530866  .00001208  00000+0  18427-3 0  9998",
        "tle_line2": "2 35683  97.8563 118.1883 0001374  98.8186 261.3179 14.75608245878543"
      },
      "geometry": {
        "type": "Point",
        "coordinates": [
          -53.65784004813047,
          44.744888661697836
        ]
      }
    },
    {
      "type": "Feature",
      "properties": {
        "norad_id": 40715,
        "name": "DMC3-FM1",
        "group": "dmc",
        "lat": 67.39207981104447,
        "lon": -168.0869271602277,
        "alt_km": 605.9325840892834,
        "timestamp": "2025-12-09T11:33:54.467151+00:00",
        "meta_object_name": "DMC3-FM1",
        "meta_object_id": "2015-032A",
        "meta_epoch": "2025-12-09T04:47:25.866816",
        "meta_mean_motion": 14.85432727,
        "meta_eccentricity": 0.0004905,
        "meta_inclination": 97.669,
        "meta_ra_of_asc_node": 210.5207,
        "meta_arg_of_pericenter": 335.2765,
        "meta_mean_anomaly": 24.8215,
        "meta_ephemeris_type": 0,
        "meta_classification_type": "U",
        "meta_norad_cat_id": 40715,
        "meta_element_set_no": 999,
        "meta_rev_at_epoch": 56170,
        "meta_bstar": 0.00022077,
        "meta_mean_motion_dot": 1.851e-05,
        "meta_mean_motion_ddot": 0,
        "tle_line1": "1 40715U 15032A   25343.19960494  .00001851  00000+0  22077-3 0  9992",
        "tle_line2": "2 40715  97.6690 210.5207 0004905 335.2765  24.8215 14.85432727561706"
      },
      "geometry": {
        "type": "Point",
        "coordinates": [
          -168.0869271602277,
          67.39207981104447
        ]
      }
    },
    {
      "type": "Feature",
      "properties": {
        "norad_id": 40716,
        "name": "DMC3-FM2",
        "group": "dmc",
        "lat": -51.053596688127655,
        "lon": -138.16137437651986,
        "alt_km": 615.7834451875706,
        "timestamp": "2025-12-09T11:33:54.467162+00:00",
        "meta_object_name": "DMC3-FM2",
        "meta_object_id": "2015-032B",
        "meta_epoch": "2025-12-09T05:19:49.783872",
        "meta_mean_motion": 14.8543355,
        "meta_eccentricity": 0.0005643,
        "meta_inclination": 97.6748,
        "meta_ra_of_asc_node": 211.9839,
        "meta_arg_of_pericenter": 339.9223,
        "meta_mean_anomaly": 20.177,
        "meta_ephemeris_type": 0,
        "meta_classification_type": "U",
        "meta_norad_cat_id": 40716,
        "meta_element_set_no": 999,
        "meta_rev_at_epoch": 56170,
        "meta_bstar": 0.00015771,
        "meta_mean_motion_dot": 1.308e-05,
        "meta_mean_motion_ddot": 0,
        "tle_line1": "1 40716U 15032B   25343.22210398  .00001308  00000+0  15771-3 0  9998",
        "tle_line2": "2 40716  97.6748 211.9839 0005643 339.9223  20.1770 14.85433550561707"
      },
      "geometry": {
        "type": "Point",
        "coordinates": [
          -138.16137437651986,
          -51.053596688127655
        ]
      }
    },
    {
      "type": "Feature",
      "properties": {
        "norad_id": 40717,
        "name": "DMC3-FM3",
        "group": "dmc",
        "lat": -12.940433031194656,
        "lon": 32.088201789292626,
        "alt_km": 619.7868702194055,
        "timestamp": "2025-12-09T11:33:54.467172+00:00",
        "meta_object_name": "DMC3-FM3",
        "meta_object_id": "2015-032C",
        "meta_epoch": "2025-12-09T04:13:55.949664",
        "meta_mean_motion": 14.85421085,
        "meta_eccentricity": 0.000503,
        "meta_inclination": 97.6801,
        "meta_ra_of_asc_node": 213.5703,
        "meta_arg_of_pericenter": 341.5884,
        "meta_mean_anomaly": 18.5149,
        "meta_ephemeris_type": 0,
        "meta_classification_type": "U",
        "meta_norad_cat_id": 40717,
        "meta_element_set_no": 999,
        "meta_rev_at_epoch": 56170,
        "meta_bstar": 7.7163e-05,
        "meta_mean_motion_dot": 6.13e-06,
        "meta_mean_motion_ddot": 0,
        "tle_line1": "1 40717U 15032C   25343.17634201  .00000613  00000+0  77163-4 0  9998",
        "tle_line2": "2 40717  97.6801 213.5703 0005030 341.5884  18.5149 14.85421085561709"
      },
      "geometry": {
        "type": "Point",
        "coordinates": [
          32.088201789292626,
          -12.940433031194656
        ]
      }
    }
  ]
}